STARLINK-2187
1 48562U 21041K   26092.50991688  .00083568  00000+0  20706-2 0  9994
2 48562  53.1614  14.8821 0001804 152.5109 207.5991 15.39703473268941
